NORAD_CAT_ID,OBJECT_NAME,OBJECT_TYPE,EPOCH,MEAN_MOTION,ECCENTRICITY,INCLINATION,RA_OF_ASC_NODE,ARG_OF_PERICENTER,MEAN_ANOMALY,BSTAR,MEAN_MOTION_DOT,MEAN_MOTION_DDOT,TLE_LINE0,TLE_LINE1,TLE_LINE2,SEMIMAJOR_AXIS,PERIOD,APOGEE,PERIGEE,DECAYED
52662.0,STARLINK-4044,PAYLOAD,2022-09-13 14:00:01,15.08825974,0.0001563,53.217,109.3275,58.5347,164.4988,0.0019986,0.00031651,0.0,0 STARLINK-4044,1 52662U 22053G   22256.58334491  .00031651  00000-0  19986-2 0  9998,2 52662  53.2170 109.3275 0001563  58.5347 164.4988 15.08825974  1308,6917.9230000000025,95.438,540.87,538.707,0.0
52662.0,STARLINK-4044,PAYLOAD,2022-09-13 22:00:00,15.08837574,0.000172,53.217,107.8328,51.0598,183.5731,0.0011825,0.0001858,0.0,0 STARLINK-4044,1 52662U 22053G   22256.91667824  .00018580  00000-0  11825-2 0  9994,2 52662  53.2170 107.8328 0001720  51.0598 183.5731 15.08837574  1308,6917.888000000001,95.438,540.943,538.563,0.0
52662.0,STARLINK-4044,PAYLOAD,2022-09-14 06:00:00,15.08875317,0.0001582,53.217,106.3354,51.3056,194.906,-0.0045293,-0.00071724,0.0,0 STARLINK-4044,1 52662U 22053G   22257.25001157 -.00071724  00000-0 -45293-2 0  9990,2 52662  53.2170 106.3354 0001582  51.3056 194.9060 15.08875317 18945,6917.772,95.435,540.732,538.543,0.0
52662.0,STARLINK-4044,PAYLOAD,2022-09-14 14:00:01,15.08860233,0.000164,53.2174,104.8382,60.5356,197.2834,-0.0014856,-0.00023867,0.0,0 STARLINK-4044,1 52662U 22053G   22257.58334491 -.00023867  00000-0 -14856-2 0  9992,2 52662  53.2174 104.8382 0001640  60.5356 197.2834 15.08860233 18994,6917.819,95.436,540.818,538.549,0.0
52662.0,STARLINK-4044,PAYLOAD,2022-09-14 22:00:00,15.088243599999998,0.0001851,53.2174,103.3435,54.4795,214.953,0.0011926999999999,0.00018737,0.0,0 STARLINK-4044,1 52662U 22053G   22257.91667824  .00018737  00000-0  11927-2 0  9992,2 52662  53.2174 103.3435 0001851  54.4795 214.9530 15.08824360  1308,6917.928000000001,95.439,541.0740000000002,538.513,0.0
52662.0,STARLINK-4044,PAYLOAD,2022-09-15 14:00:01,15.08862249,0.0001636,53.2175,100.3492,62.2042,230.4132,-0.00024001,-4.108e-05,0.0,0 STARLINK-4044,1 52662U 22053G   22258.58334491 -.00004108  00000-0 -24001-3 0  9994,2 52662  53.2175 100.3492 0001636  62.2042 230.4132 15.08862249  1301,6917.812,95.436,540.809,538.5459999999998,0.0
52662.0,STARLINK-4044,PAYLOAD,2022-09-15 20:39:26,15.08850947,0.000165,53.2172,99.1048,52.1016,308.0125,0.00022199,3.248e-05,0.0,0 STARLINK-4044,1 52662U 22053G   22258.86072097  .00003248  00000-0  22199-3 0  9994,2 52662  53.2172  99.1048 0001650  52.1016 308.0125 15.08850947 19197,6917.847,95.437,540.8530000000002,538.57,0.0
52662.0,STARLINK-4044,PAYLOAD,2022-09-16 06:11:44,15.08848367,0.0001358,53.2164,97.321,44.8529,315.2573,0.00011128,1.484e-05,0.0,0 STARLINK-4044,1 52662U 22053G   22259.25815925  .00001484  00000-0  11128-3 0  9993,2 52662  53.2164  97.3210 0001358  44.8529 315.2573 15.08848367 19258,6917.855,95.437,540.659,538.78,0.0
52662.0,STARLINK-4044,PAYLOAD,2022-09-16 18:54:50,15.08834387,0.000184,53.2175,94.9414,50.5222,309.5933,-4.4955e-05,-1.003e-05,0.0,0 STARLINK-4044,1 52662U 22053G   22259.78808745 -.00001003  00000-0 -44955-4 0  9997,2 52662  53.2175  94.9414 0001840  50.5222 309.5933 15.08834387 19331,6917.898,95.438,541.035,538.49,0.0
52662.0,STARLINK-4044,PAYLOAD,2022-09-16 20:30:13,15.08833785,0.0001991,53.2185,94.643,48.5326,311.5837,-7.880800000000001e-05,-1.542e-05,0.0,0 STARLINK-4044,1 52662U 22053G   22259.85432787 -.00001542  00000-0 -78808-4 0  9996,2 52662  53.2185  94.6430 0001991  48.5326 311.5837 15.08833785 19344,6917.899,95.438,541.1419999999998,538.387,0.0
52662.0,STARLINK-4044,PAYLOAD,2022-09-17 01:16:23,15.08832387,0.0001807,53.218,93.752,53.8578,306.2581,-7.8752e-05,-1.541e-05,0.0,0 STARLINK-4044,1 52662U 22053G   22260.05304958 -.00001541  00000-0 -78752-4 0  9995,2 52662  53.2180  93.7520 0001807  53.8578 306.2581 15.08832387 19370,6917.904,95.438,541.019,538.519,0.0
52662.0,STARLINK-4044,PAYLOAD,2022-09-17 20:21:01,15.08838091,0.0001705,53.2179,90.1839,57.1088,303.0068,1.9508e-05,2.2e-07,0.0,0 STARLINK-4044,1 52662U 22053G   22260.84792931  .00000022  00000-0  19508-4 0  9999,2 52662  53.2179  90.1839 0001705  57.1088 303.0068 15.08838091 19498,6917.886,95.438,540.931,538.572,0.0
52662.0,STARLINK-4044,PAYLOAD,2022-09-18 12:14:52,15.08842968,0.0001651,53.2182,87.2103,55.2664,304.8483,0.00021351,3.112e-05,0.0,0 STARLINK-4044,1 52662U 22053G   22261.51032997  .00003112  00000-0  21351-3 0  9994,2 52662  53.2182  87.2103 0001651  55.2664 304.8483 15.08842968 19591,6917.871,95.437,540.878,538.594,0.0
52662.0,STARLINK-4044,PAYLOAD,2022-09-18 20:11:48,15.08851297,0.0001647,53.2179,85.72399999999998,54.8409,305.2738,0.00040661,6.191e-05,0.0,0 STARLINK-4044,1 52662U 22053G   22261.84152800  .00006191  00000-0  40661-3 0  9991,2 52662  53.2179  85.7240 0001647  54.8409 305.2738 15.08851297 19648,6917.846,95.437,540.85,538.571,0.0
52662.0,STARLINK-4044,PAYLOAD,2022-09-19 00:57:57,15.08856092,0.0001654,53.2176,84.83200000000002,54.3901,305.7245,0.00058794,9.086e-05,0.0,0 STARLINK-4044,1 52662U 22053G   22262.04024713  .00009086  00000-0  58794-3 0  9997,2 52662  53.2176  84.8320 0001654  54.3901 305.7245 15.08856092 19673,6917.831,95.437,540.84,538.552,0.0
52662.0,STARLINK-4044,PAYLOAD,2022-09-19 12:05:39,15.08844672,0.0001716,53.2178,82.7507,56.5858,303.5298,0.00010231,1.341e-05,0.0,0 STARLINK-4044,1 52662U 22053G   22262.50392811  .00001341  00000-0  10231-3 0  9995,2 52662  53.2178  82.7507 0001716  56.5858 303.5298 15.08844672 19746,6917.866,95.437,540.918,538.544,0.0
52662.0,STARLINK-4044,PAYLOAD,2022-09-19 18:27:11,15.08843454,0.0001674,53.2182,81.5614,56.4704,303.6448,0.0001161999999999,1.562e-05,0.0,0 STARLINK-4044,1 52662U 22053G   22262.76888885  .00001562  00000-0  11620-3 0  9992,2 52662  53.2182  81.5614 0001674  56.4704 303.6448 15.08843454 19788,6917.87,95.437,540.893,538.577,0.0
52662.0,STARLINK-4044,PAYLOAD,2022-09-19 20:02:35,15.08844931,0.0001668,53.2184,81.264,56.6995,303.4157,0.00015165,2.127e-05,0.0,0 STARLINK-4044,1 52662U 22053G   22262.83512853  .00002127  00000-0  15165-3 0  9995,2 52662  53.2184  81.2640 0001668  56.6995 303.4157 15.08844931 19790,6917.865,95.437,540.884,538.576,0.0
52662.0,STARLINK-4044,PAYLOAD,2022-09-19 23:13:21,15.08846249,0.0001666999999999,53.2183,80.669,55.293,304.8219,0.00015769,2.223e-05,0.0,0 STARLINK-4044,1 52662U 22053G   22262.96760751  .00002223  00000-0  15769-3 0  9998,2 52662  53.2183  80.6690 0001667  55.2930 304.8219 15.08846249 19811,6917.861,95.437,540.879,538.573,0.0
52662.0,STARLINK-4044,PAYLOAD,2022-09-20 19:53:22,15.08840547,0.0001662,53.2182,76.8031,54.5833,305.5314,-2.5753e-05,-6.98e-06,0.0,0 STARLINK-4044,1 52662U 22053G   22263.82872853 -.00000698  00000-0 -25753-4 0  9992,2 52662  53.2182  76.8031 0001662  54.5833 305.5314 15.08840547 19948,6917.879,95.438,540.893,538.594,0.0
52662.0,STARLINK-4044,PAYLOAD,2022-09-20 23:04:08,15.08841383,0.0001665,53.2182,76.2084,56.242,303.873,-1.4817e-05,-5.24e-06,0.0,0 STARLINK-4044,1 52662U 22053G   22263.96120798 -.00000524  00000-0 -14817-4 0  9998,2 52662  53.2182  76.2084 0001665  56.2420 303.8730 15.08841383 19968,6917.876,95.437,540.893,538.589,0.0
52662.0,STARLINK-4044,PAYLOAD,2022-09-21 19:44:08,15.08847983,0.0001669,53.2191,72.3427,56.4548,303.6604,0.00013055,1.791e-05,0.0,0 STARLINK-4044,1 52662U 22053G   22264.82232152  .00001791  00000-0  13055-3 0  9999,2 52662  53.2191  72.3427 0001669  56.4548 303.6604 15.08847983 20099,6917.856,95.437,540.876,538.566,0.0
52662.0,STARLINK-4044,PAYLOAD,2022-09-22 03:41:05,15.08833006,0.0002605,53.2219,70.855,57.6691,302.4553,6.5385e-05,7.52e-06,0.0,0 STARLINK-4044,1 52662U 22053G   22265.15353710  .00000752  00000-0  65385-4 0  9990,2 52662  53.2219  70.8550 0002605  57.6691 302.4553 15.08833006 20140,6917.901999999999,95.438,541.569,537.965,0.0
52662.0,STARLINK-4044,PAYLOAD,2022-09-22 13:13:24,15.08832297,0.0001703,53.2192,69.0721,55.5537,304.5616,8.3129e-05,1.035e-05,0.0,0 STARLINK-4044,1 52662U 22053G   22265.55097501  .00001035  00000-0  83129-4 0  9998,2 52662  53.2192  69.0721 0001703  55.5537 304.5616 15.08832297 20205,6917.904,95.438,540.947,538.591,0.0
52662.0,STARLINK-4044,PAYLOAD,2022-09-22 17:59:33,15.08836445,0.0001689,53.2193,68.1801,55.75,304.3652,0.00011957,1.615e-05,0.0,0 STARLINK-4044,1 52662U 22053G   22265.74969321  .00001615  00000-0  11957-3 0  9990,2 52662  53.2193  68.1801 0001689  55.7500 304.3652 15.08836445 20230,6917.891,95.438,540.925,538.5880000000002,0.0
52662.0,STARLINK-4044,PAYLOAD,2022-09-23 03:31:52,15.08842378,0.000173,53.2185,66.3958,54.6503,305.4651,0.00016361,2.317e-05,0.0,0 STARLINK-4044,1 52662U 22053G   22266.14713044  .00002317  00000-0  16361-3 0  9998,2 52662  53.2185  66.3958 0001730  54.6503 305.4651 15.08842378 20291,6917.873000000001,95.437,540.935,538.5409999999998,0.0
52662.0,STARLINK-4044,PAYLOAD,2022-09-23 19:25:43,15.08833952,0.0001683,53.2185,63.4221,55.4343,304.6808,-3.8281e-05,-8.97e-06,0.0,0 STARLINK-4044,1 52662U 22053G   22266.80953511 -.00000897  00000-0 -38281-4 0  9995,2 52662  53.2185  63.4221 0001683  55.4343 304.6808 15.08833952 20394,6917.899,95.438,540.928,538.6,0.0
52662.0,STARLINK-4044,PAYLOAD,2022-09-24 12:54:58,15.08840786,0.0001549,53.2187,60.1507,54.6278,305.4859,0.00012728,1.738e-05,0.0,0 STARLINK-4044,1 52662U 22053G   22267.53817356  .00001738  00000-0  12728-3 0  9992,2 52662  53.2187  60.1507 0001549  54.6278 305.4859 15.08840786 20507,6917.878000000002,95.438,540.815,538.6709999999998,0.0
52662.0,STARLINK-4044,PAYLOAD,2022-09-24 17:41:07,15.08847384,0.0001594,53.2187,59.2589,53.5967,306.5171,0.00022122,3.235e-05,0.0,0 STARLINK-4044,1 52662U 22053G   22267.73689061  .00003235  00000-0  22122-3 0  9997,2 52662  53.2187  59.2589 0001594  53.5967 306.5171 15.08847384 20532,6917.858,95.437,540.826,538.62,0.0
